[{"OBJECT_NAME":"STARLINK-4132","OBJECT_ID":"2022-086L","EPOCH":"2026-03-09T13:45:47.209248","MEAN_MOTION":15.08836694,"ECCENTRICITY":0.0001138,"INCLINATION":53.2173,"RA_OF_ASC_NODE":194.5921,"ARG_OF_PERICENTER":104.957,"MEAN_ANOMALY":255.1548,"EPHEMERIS_TYPE":0,"CLASSIFICATION_TYPE":"U","NORAD_CAT_ID":53252,"ELEMENT_SET_NO":999,"REV_AT_EPOCH":20106,"BSTAR":2.4676e-5,"MEAN_MOTION_DOT":1.05e-6,"MEAN_MOTION_DDOT":0},{"OBJECT_NAME":"YUNYAO-1 45","OBJECT_ID":"2025-059C","EPOCH":"2026-03-09T23:25:14.115648","MEAN_MOTION":15.10348188,"ECCENTRICITY":0.00171316,"INCLINATION":97.6099,"RA_OF_ASC_NODE":251.0366,"ARG_OF_PERICENTER":134.7318,"MEAN_ANOMALY":225.5309,"EPHEMERIS_TYPE":0,"CLASSIFICATION_TYPE":"U","NORAD_CAT_ID":63346,"ELEMENT_SET_NO":999,"REV_AT_EPOCH":5332,"BSTAR":0.00033512738,"MEAN_MOTION_DOT":5.451e-5,"MEAN_MOTION_DDOT":0}]
